SES-6                   
1 39172U 13026A   26063.06294760 -.00000274  00000+0  00000+0 0  9997
2 39172   0.0668 288.4881 0001853  59.3810 156.0856  1.00272191 46673
IRNSS-1A                
1 39199U 13034A   26062.59712745  .00000081  00000+0  00000+0 0  9995
2 39199  35.4874  65.3779 0017825 190.7092 175.2371  1.00269823 46313
MUOS-2                  
1 39206U 13036A   26063.11986751 -.00000022  00000+0  00000+0 0  9991
2 39206   4.7853  45.3224 0053138 184.1359 147.5681  1.00273466 46135
ALPHASAT                
1 39215U 13038A   26063.06919770  .00000123  00000+0  00000+0 0  9995
2 39215   2.9812   2.1265 0001959 354.9489 214.5395  1.00270831 42968
INSAT-3D                
1 39216U 13038B   26062.96873667 -.00000351  00000+0  00000+0 0  9992
2 39216   1.6544  83.9201 0001772 240.8778 315.1496  1.00273595 46022
WGS F6 (USA 244)        
1 39222U 13041A   26063.03169721  .00000076  00000+0  00000+0 0  9994
2 39222   0.0171 132.4129 0001398 189.4437  76.1219  1.00270198 45001
ES'HAIL 1               
1 39233U 13044A   26063.06919770  .00000130  00000+0  00000+0 0  9990
2 39233   0.0553 349.6991 0003077 355.4017 227.1139  1.00270895 45576
GSAT-7                  
1 39234U 13044B   26063.10036743 -.00000089  00000+0  00000+0 0  9990
2 39234   0.0207 109.2472 0006608 183.9207 338.8037  1.00271441 44209
AMOS-4                  
1 39237U 13045A   26063.09854743 -.00000005  00000+0  00000+0 0  9998
2 39237   0.0119 158.9724 0003310 189.9836 273.3653  1.00272159 45908
AEHF-3 (USA 246)        
1 39256U 13050A   26063.13234758  .00000019  00000+0  00000+0 0  9992
2 39256   5.0348  68.1529 0091732 187.9099 189.2028  1.00272712 44609
ASTRA 2E                
1 39285U 13056A   26063.06919770  .00000137  00000+0  00000+0 0  9997
2 39285   0.0692  29.9587 0002192 306.6148 238.6253  1.00271905 45360
FM-6                    
1 39360U 13058A   26063.13399425 -.00000029  00000+0  00000+0 0  9991
2 39360   0.0222 128.9923 0002894  53.3091 271.6263  1.00268989 45017
RADUGA-1M 3             
1 39375U 13062A   26063.09265406  .00000143  00000+0  00000+0 0  9994
2 39375   5.6952  73.6833 0000239 275.1140 241.3863  1.00273194 45058
SES-8                   
1 39460U 13071A   26063.16641990 -.00000282  00000+0  00000+0 0  9998
2 39460   0.0587 272.5817 0001640  92.1261 312.1062  1.00273058 43387
INMARSAT 5-F1           
1 39476U 13073A   26063.09802742  .00000016  00000+0  00000+0 0  9997
2 39476   0.0211 127.6809 0000220 218.2789 273.7264  1.00269426 44525
TKSAT-1 (TUPAC KATARI)  
1 39481U 13075A   26063.17405784 -.00000207  00000+0  00000+0 0  9992
2 39481   0.0541 304.3554 0003058  33.2464 159.7772  1.00272973 44556
EXPRESS-AM5             
1 39487U 13077A   26063.21850450  .00000000  00000+0  00000+0 0  9999
2 39487   0.0219 167.2028 0002233 167.4577  46.0164  1.00270009 45300
